IRNSS-1C                
1 40269U 14061A   23359.50146520 -.00000155  00000+0  00000+0 0  9998
2 40269   4.2385 109.4193 0017668   4.4474 243.4721  1.00271917 33617
INTELSAT 30 (IS-30)     
1 40271U 14062A   23359.30028729 -.00000140  00000+0  00000+0 0  9994
2 40271   0.0101 357.2441 0000943   1.5701 107.7809  1.00271154 33520
ARSAT 1                 
1 40272U 14062B   23359.51984578 -.00000249  00000+0  00000+0 0  9991
2 40272   0.0157   5.3411 0002317 267.0616 296.7012  1.00271135 33547
EXPRESS-AM6             
1 40277U 14064A   23359.47302752  .00000108  00000+0  00000+0 0  9994
2 40277   0.0161 296.7206 0000704  13.8313   6.4568  1.00271700 32509
GSAT-16                 
1 40332U 14078A   23359.54508238  .00000095  00000+0  00000+0 0  9991
2 40332   0.0125 296.0539 0002086 170.1863 238.8456  1.00271131 33039
DIRECTV 14              
1 40333U 14078B   23359.41369056 -.00000115  00000+0  00000+0 0  9995
2 40333   0.0197 312.6631 0000286 282.5570 268.1414  1.00272406 32990
YAMAL 401               
1 40345U 14082A   23359.24931153 -.00000217  00000+0  00000+0 0  9990
2 40345   0.0256 279.8986 0000550  10.3848 342.8936  1.00269977 32847
ASTRA 2G                
1 40364U 14089A   23359.56715865  .00000160  00000+0  00000+0 0  9999
2 40364   0.0436 340.8430 0001425  28.5219 316.8139  1.00270294 32891
FENGYUN 2G              
1 40367U 14090A   23359.55395870 -.00000296  00000+0  00000+0 0  9994
2 40367   3.3434  83.5411 0000647  45.9210 263.2745  1.00280271 32925
MUOS-3                  
1 40374U 15002A   23359.45945198 -.00000120  00000+0  00000+0 0  9995
2 40374   3.0027  31.1915 0058291 183.1192  29.3347  1.00270703 32511
INMARSAT 5-F2           
1 40384U 15005A   23359.23667365 -.00000274  00000+0  00000+0 0  9992
2 40384   0.0276  21.5723 0000261 262.8147 199.2933  1.00267917 31929
ABS-3A                  
1 40424U 15010A   23359.49354764 -.00000016  00000+0  00000+0 0  9991
2 40424   0.0402  56.5946 0001578 108.7323 103.0968  1.00270536 32301
EUTELSAT 115 WEST B     
1 40425U 15010B   23359.40755671 -.00000014  00000+0  00000+0 0  9993
2 40425   0.0084 154.1751 0000400 215.9684 115.3492  1.00271197 32369
EXPRESS-AM7             
1 40505U 15012A   23359.55049406  .00000161  00000+0  00000+0 0  9994
2 40505   0.0206  62.9937 0003114 210.9944  57.9786  1.00273579 31930
IRNSS-1D                
1 40547U 15018A   23359.57847635 -.00000259  00000+0  00000+0 0  9997
2 40547  27.8419 255.7218 0018371 181.1853 336.9917  1.00276892 31917
BEIDOU-3S IGSO-1S       
1 40549U 15019A   23359.23356733 -.00000198  00000+0  00000+0 0  9999
2 40549  50.8982 306.2545 0035972 195.5111 130.3751  1.00287822 31992
THOR 7                  
1 40613U 15022A   23359.49354764  .00000002  00000+0  00000+0 0  9998
2 40613   0.0150  26.2555 0002786 248.2115 356.2978  1.00269880 31742
TURKMENALEM52E/MONACOSAT
1 40617U 15023A   23359.40114670  .00000114  00000+0  00000+0 0  9998
2 40617   0.0419  94.7468 0003078 179.6370  15.6953  1.00273185 31777
DIRECTV 15              
1 40663U 15026A   23359.38110288 -.00000092  00000+0  00000+0 0  9996
2 40663   0.0278  21.7660 0000492 198.0889 268.1040  1.00270261 31406
SKY MEXICO-1            
1 40664U 15026B   23359.51845341 -.00000224  00000+0  00000+0 0  9994
2 40664   0.0144 310.2807 0002615 330.5512 280.8109  1.00271359 31386
METEOSAT-11 (MSG-4)     
1 40732U 15034A   23359.36299446  .00000074  00000+0  00000+0 0  9993
2 40732   0.9753  62.3163 0002225 222.2055 309.2342  1.00278562 30942
STAR ONE C4             
1 40733U 15034B   23359.23362785 -.00000254  00000+0  00000+0 0  9998
2 40733   0.0214 349.2377 0002274 307.6990 170.6487  1.00272739 30951
WGS F7 (USA 263)        
1 40746U 15036A   23359.21082789  .00000028  00000+0  00000+0 0  9993
2 40746   0.0438  57.9696 0000100 221.6350  64.7417  1.00271880 30795
INTELSAT 34 (IS-34)     
1 40874U 15039A   23359.23658663 -.00000274  00000+0  00000+0 0  9994
2 40874   0.0147   7.5001 0000771 294.6658 181.0024  1.00270957 30555
EUTELSAT 8 WEST B       
1 40875U 15039B   23359.49354764 -.00000055  00000+0  00000+0 0  9995
2 40875   0.0636 354.1623 0003625 290.1576 339.0877  1.00270545 30577
GSAT-6                  
1 40880U 15041A   23359.59554512 -.00000150  00000+0  00000+0 0  9994
2 40880   0.0454  89.4885 0003463 172.3387 128.9273  1.00272580 30521
INMARSAT 5-F3           
1 40882U 15042A   23359.62430015  .00000060  00000+0  00000+0 0  9991
2 40882   0.0277  27.0966 0000646 299.2158 171.9128  1.00269116 30493
MUOS-4                  
1 40887U 15044A   23359.54899840 -.00000086  00000+0  00000+0 0  9993
2 40887   2.8920  27.5699 0053288 356.0816 342.7976  1.00271705 30489
TJS-1                   
1 40892U 15046A   23359.60135977 -.00000146  00000+0  00000+0 0  9999
2 40892   0.0617 254.2090 0002266  36.9123 174.2386  1.00268225 30494
EXPRESS-AM8             
1 40895U 15048A   23359.45945198 -.00000101  00000+0  00000+0 0  9992
2 40895   0.0171 333.4800 0000386 210.9403  60.6848  1.00271216 30278
BEIDOU-3S IGSO-2S       
1 40938U 15053A   23359.22903376 -.00000126  00000+0  00000+0 0  9990
2 40938  50.6324 269.4472 0046299 192.6422 168.1676  1.00257533 30280
SKY MUSTER 1 (NBN1A)    
1 40940U 15054A   23359.58659203 -.00000268  00000+0  00000+0 0  9997
2 40940   0.0121 306.9284 0002036 325.1892 173.1398  1.00270563 30195
ARSAT 2                 
1 40941U 15054B   23359.51801830 -.00000214  00000+0  00000+0 0  9997
2 40941   0.0168  25.6991 0002119 241.8110 291.7375  1.00270938 30240
MORELOS 3               
1 40946U 15056A   23359.57664557 -.00000031  00000+0  00000+0 0  9990
2 40946   3.1254 347.0370 0001613 351.6560 209.6372  1.00272523 30218
APSTAR 9                
1 40982U 15059A   23359.59632530 -.00000256  00000+0  00000+0 0  9990
2 40982   0.0252  25.4434 0003002 221.5334 203.5462  1.00268332 30056
TURKSAT 4B              
1 40984U 15060A   23359.55014685  .00000125  00000+0  00000+0 0  9999
2 40984   0.0010   3.9475 0002810 262.4201  75.4432  1.00270394 30020
CHINASAT 2C (ZX 2C)     
1 41021U 15063A   23359.64174692 -.00000314  00000+0  00000+0 0  9991
2 41021   0.0317 126.7982 0002525 236.6733  64.8686  1.00271434 29922
GSAT-15                 
1 41028U 15065A   23359.59748112 -.00000248  00000+0  00000+0 0  9994
2 41028   0.0425 270.9617 0002540 331.4828 159.9994  1.00271543 29729
BADR-7 (ARABSAT-6B)     
1 41029U 15065B   23359.56715865  .00000155  00000+0  00000+0 0  9997
2 41029   0.0495 222.9498 0006080  26.6631  74.3534  1.00270546 29697
LAOSAT 1                
1 41034U 15067A   23359.64709625 -.00000333  00000+0  00000+0 0  9990
2 41034   0.0159 180.5867 0002571  58.0082 216.7413  1.00268939 29791
TELSTAR 12V             
1 41036U 15068A   23359.45936494 -.00000108  00000+0  00000+0 0  9998
2 41036   0.0209  66.5802 0002756 214.2041 323.2900  1.00271179 29556
ELEKTRO-L 2             
1 41105U 15074A   23359.45945198 -.00000110  00000+0  00000+0 0  9996
2 41105   4.3961  81.5663 0003771 186.6068 336.4434  1.00272516 29437
COSMOS 2513             
1 41121U 15075A   23359.19182269 -.00000128  00000+0  00000+0 0  9997
2 41121   0.0777 104.3620 0003159 177.6687 320.7228  1.00273511 29452
EXPRESS-AMU1            
1 41191U 15082A   23359.54125338  .00000166  00000+0  00000+0 0  9996
2 41191   0.0087 328.7978 0002744 307.8412  48.0829  1.00270084 29193
GAOFEN-4                
1 41194U 15083A   23359.57455632 -.00000325  00000+0  00000+0 0  9994
2 41194   0.0812  80.4497 0003127 150.3993 175.5098  1.00272186 29459
BELINTERSAT-1           
1 41238U 16001A   23359.54438622  .00000117  00000+0  00000+0 0  9999
2 41238   0.0051  98.5790 0001883 142.5300 100.1595  1.00272929 29160
IRNSS-1E                
1 41241U 16003A   23359.64273050 -.00000318  00000+0  00000+0 0  9992
2 41241  31.2345  76.1035 0021611 184.5658 176.4400  1.00271517 29010
EUTELSAT 9B             
1 41310U 16005A   23359.53594500  .00000072  00000+0  00000+0 0  9991
2 41310   0.0736  76.9042 0005337 190.9836  27.8291  1.00273137 29047
SES-9                   
1 41380U 16013A   23359.26913316 -.00000335  00000+0  00000+0 0  9990
2 41380   0.0243 308.9455 0000270 258.8162  90.9386  1.00269957 28365
EUTELSAT 65 WEST A      
1 41382U 16014A   23359.53666529 -.00000265  00000+0  00000+0 0  9996
2 41382   0.0493 348.6158 0002322 282.4152 310.7560  1.00272208 28479
IRNSS-1F                
1 41384U 16015A   23359.54055720  .00000167  00000+0  00000+0 0  9995
2 41384   3.1729 124.7283 0022320 180.8309  15.1347  1.00271927 28593
BEIDOU-2 IGSO-6         
1 41434U 16021A   23359.63856640 -.00000162  00000+0  00000+0 0  9994
2 41434  58.9145  47.1191 0049761 224.0204 147.2625  1.00261084 28418
IRNSS-1G                
1 41469U 16027A   23359.58365559 -.00000326  00000+0  00000+0 0  9998
2 41469   3.0586 126.1676 0002898 260.8113  46.4975  1.00275237 28108
JCSAT-2B                
1 41471U 16028A   23359.60136010 -.00000155  00000+0  00000+0 0  9993
2 41471   0.0182  18.3362 0001298 266.8325 179.1506  1.00270213 28055
THAICOM 8               
1 41552U 16031A   23359.59483863 -.00000111  00000+0  00000+0 0  9998
2 41552   0.0548  40.6761 0002984 268.0881  77.7218  1.00270302 27642
INTELSAT 31 (IS-31)     
1 41581U 16035A   23355.93389056 -.00000140  00000+0  00000+0 0  9999
2 41581   0.0170  37.4425 0001955 145.8941 148.0378  1.00269981 27585
BEIDOU-2 G7             
1 41586U 16037A   23359.64273045 -.00000345  00000+0  00000+0 0  9995
2 41586   1.4916  66.6328 0009162 313.7587  55.4542  1.00271754 27720
ABS-2A (MONGOLSAT-1)    
1 41588U 16038A   23359.50009571 -.00000074  00000+0  00000+0 0  9993
2 41588   0.0132 348.2703 0001760 241.3749 118.8669  1.00270188 27639
EUTELSAT 117 WEST B     
1 41589U 16038B   23359.30487400  .00000000  00000+0  00000+0 0  9991
2 41589   0.0421 180.6051 0000505 245.3730  20.3372  1.00265333 27583
